ONEWEB-0271             
1 48989U 21060Y   24275.46380938  .00000113  00000+0  26148-3 0  9996
2 48989  87.9169 352.9937 0002236 108.7567 251.3807 13.16595497157598
ONEWEB-0272             
1 48990U 21060Z   24275.48596960  .00000063  00000+0  13019-3 0  9991
2 48990  87.9169 353.0192 0002077 107.8636 252.2722 13.16595659157546
ONEWEB-0273             
1 48991U 21060AA  24275.50813692  .00000238  00000+0  58910-3 0  9992
2 48991  87.9165 353.0008 0002150 100.7124 259.4249 13.16594615157527
ONEWEB-0274             
1 48992U 21060AB  24276.21744880  .00000191  00000+0  46628-3 0  9995
2 48992  87.9181 352.8815 0001719 115.9281 244.2027 13.16593665158959
ONEWEB-0275             
1 48993U 21060AC  24275.75038042  .00000085  00000+0  18949-3 0  9997
2 48993  87.9172 352.9486 0001969 104.1860 255.9490 13.16593491157527
ONEWEB-0276             
1 48994U 21060AD  24275.47963459  .00000140  00000+0  33329-3 0  9997
2 48994  87.9167 352.9978 0002271 102.3842 257.7543 13.16596869157504
ONEWEB-0277             
1 48995U 21060AE  24275.49230298  .00000224  00000+0  55325-3 0  9991
2 48995  87.9171 353.0338 0002487 110.0311 250.1088 13.16595685157492
ONEWEB-0278             
1 48996U 21060AF  24275.78678665 -.00000114  00000+0 -33186-3 0  9999
2 48996  87.9168 352.9341 0002002  93.4187 266.7173 13.16596222157664
ONEWEB-0279             
1 48997U 21060AG  24275.49072268  .00000144  00000+0  34343-3 0  9992
2 48997  87.9167 352.9900 0002257 110.7201 249.4172 13.16596002157558
ONEWEB-0280             
1 48998U 21060AH  24276.18892393  .00000818  00000+0  21050-2 0  9997
2 48998  87.9187 352.8558 0001836  99.7297 260.4041 13.16601483158876
ONEWEB-0281             
1 48999U 21060AJ  24275.73929683  .00000146  00000+0  34884-3 0  9995
2 48999  87.9170 352.9445 0001649 104.6207 255.5107 13.16595412157594
ONEWEB-0282             
1 49000U 21060AK  24276.14936137  .00000077  00000+0  16717-3 0  9995
2 49000  87.9173 352.8800 0002252 102.2391 257.8992 13.16595834158949
ONEWEB-0283             
1 49001U 21060AL  24275.45430337  .00000136  00000+0  32186-3 0  9994
2 49001  87.9173 353.0229 0002169 107.7031 252.4337 13.16597222157548
ONEWEB-0284             
1 49002U 21060AM  24275.75194779  .00000044  00000+0  82276-4 0  9999
2 49002  87.9164 352.9416 0001987  96.3229 263.8128 13.16592203157564
ONEWEB-0285             
1 49075U 21075A   24275.82145695 -.00000728  00000+0 -20595-2 0  9991
2 49075  87.8852 114.8172 0001741  82.5860 277.5466 13.12444267153449
ONEWEB-0286             
1 49076U 21075B   24275.79293804  .00000294  00000+0  78288-3 0  9993
2 49076  87.8847 114.8226 0001495  76.2127 283.9167 13.12443547152792
ONEWEB-0287             
1 49077U 21075C   24276.11039193 -.00000498  00000+0 -13161-2 0  9996
2 49077  87.9107 129.9830 0001768  73.8942 286.2384 13.17649045152548
ONEWEB-0288             
1 49078U 21075D   24275.47422920  .00000558  00000+0  15147-2 0  9990
2 49078  87.8848 114.8898 0001771  79.5990 280.5338 13.12443867153374
ONEWEB-0289             
1 49079U 21075E   24275.30378354  .00000152  00000+0  35728-3 0  9992
2 49079  87.9106 130.1722 0001748  81.8341 278.2989 13.17648960152045
ONEWEB-0290             
1 49080U 21075F   24275.89437960  .00000657  00000+0  16578-2 0  9998
2 49080  87.9101 130.0141 0002252  85.1112 275.0277 13.17643307151538
ONEWEB-0291             
1 49081U 21075G   24275.57546524  .00000107  00000+0  24196-3 0  9997
2 49081  87.9099 130.0938 0001892  72.3542 287.7796 13.17649193151482
ONEWEB-0293             
1 49082U 21075H   24276.13232846  .00000104  00000+0  23360-3 0  9999
2 49082  87.9104 130.0023 0001882  75.9523 284.1818 13.17651145152568
ONEWEB-0294             
1 49083U 21075J   24275.78566200  .00000480  00000+0  12981-2 0  9997
2 49083  87.8846 114.8267 0002223  73.3974 286.7399 13.12442524152806
ONEWEB-0295             
1 49084U 21075K   24275.59991851  .00000023  00000+0  25852-4 0  9997
2 49084  87.9106 130.0861 0001721  66.8666 293.2646 13.17650435151471
ONEWEB-0296             
1 49085U 21075L   24275.30874829  .00000396  00000+0  10650-2 0  9993
2 49085  87.8850 114.9249 0001929  61.9096 298.2227 13.12446447152743
ONEWEB-0297             
1 49086U 21075M   24275.79700907  .00000136  00000+0  34340-3 0  9997
2 49086  87.8857 114.8423 0001585  82.8356 277.2953 13.12441416153412
ONEWEB-0298             
1 49087U 21075N   24276.13572139  .00000229  00000+0  55774-3 0  9998
2 49087  87.9107 129.9976 0001450  77.4159 282.7134 13.17650591152562
ONEWEB-0299             
1 49088U 21075P   24276.13739317 -.00000012  00000+0 -63918-4 0  9994
2 49088  87.9102 129.9622 0001482  75.0746 285.0550 13.17647689152525
ONEWEB-0300             
1 49089U 21075Q   24275.78888690  .00000323  00000+0  86362-3 0  9994
2 49089  87.8845 114.8240 0001473  95.9165 264.2132 13.12443301153430
ONEWEB-0301             
1 49090U 21075R   24276.07761862  .00000366  00000+0  98317-3 0  9990
2 49090  87.8849 114.7701 0001522  93.6709 266.4593 13.12445758153827
ONEWEB-0302             
1 49091U 21075S   24275.45472557  .00000184  00000+0  47527-3 0  9997
2 49091  87.8852 114.8935 0001798  76.6901 283.4428 13.12446880152734
ONEWEB-0304             
1 49092U 21075T   24275.58052854  .00000146  00000+0  34329-3 0  9990
2 49092  87.9106 130.0926 0001668  71.6485 288.4828 13.17647974152434
ONEWEB-0305             
1 49093U 21075U   24275.57378956  .00000649  00000+0  16374-2 0  9991
2 49093  87.9101 130.0789 0001487  65.7230 294.4057 13.17646501151488
ONEWEB-0308             
1 49094U 21075V   24275.52449740 -.00000082  00000+0 -26437-3 0  9992
2 49094  87.8849 114.8778 0001615  85.2566 274.8747 13.12444694152750
ONEWEB-0309             
1 49095U 21075W   24275.57714366 -.00000013  00000+0 -66811-4 0  9992
2 49095  87.9105 130.0856 0002195  74.7439 285.3936 13.17647116151452
ONEWEB-0310             
1 49096U 21075X   24275.46286700  .00000424  00000+0  11438-2 0  9994
2 49096  87.8858 114.9076 0001813  81.8822 278.2512 13.12444182153370
ONEWEB-0311             
1 49097U 21075Y   24275.35608631  .00000180  00000+0  43103-3 0  9998
2 49097  87.9111 130.1300 0001314  70.3991 289.7282 13.17648076151473
ONEWEB-0312             
1 49098U 21075Z   24275.29533184  .00000106  00000+0  24112-3 0  9999
2 49098  87.9105 130.1747 0001836  64.7520 295.3801 13.17648255151442
ONEWEB-0313             
1 49099U 21075AA  24275.57629819 -.00000002  00000+0 -39050-4 0  9997
2 49099  87.9105 130.1215 0001725  72.2824 287.8495 13.17647111152470
ONEWEB-0314             
1 49100U 21075AB  24275.34259418  .00000190  00000+0  45685-3 0  9995
2 49100  87.9111 130.1207 0001626  69.6675 290.4631 13.17648657151416
ONEWEB-0315             
1 49101U 21075AC  24275.81809635 -.00000334  00000+0 -96390-3 0  9991
2 49101  87.8849 114.8113 0001259  79.2484 280.8786 13.12444329153406
ONEWEB-0316             
1 49102U 21075AD  24275.75817018  .00000109  00000+0  24405-3 0  9995
2 49102  87.9054  99.5511 0001547  83.0576 277.0732 13.18684570155043
ONEWEB-0317             
1 49103U 21075AE  24275.81160054 -.00000301  00000+0 -87121-3 0  9994
2 49103  87.8851 114.8233 0002028  92.8372 267.2989 13.12443421153424
ONEWEB-0318             
1 49104U 21075AF  24276.05851499  .00000025  00000+0  31472-4 0  9992
2 49104  87.9053  99.4817 0001439  81.9827 278.1468 13.18684728156042
ONEWEB-0319             
1 49105U 21075AG  24276.11713663  .00000097  00000+0  21551-3 0  9995
2 49105  87.9108 130.0047 0001372  64.0553 296.0720 13.17647659152547
ONEWEB-0323             
1 49106U 21075AH  24275.80187445  .00000031  00000+0  50847-4 0  9993
2 49106  87.8846 114.8132 0001602  77.7467 282.3841 13.12441911152788
ONEWEB-0329             
1 49107U 21075AJ  24275.89776938  .00000143  00000+0  33398-3 0  9999
2 49107  87.9105 130.0526 0001678  73.7343 286.3973 13.17647653151502
ONEWEB-0330             
1 49108U 21075AK  24275.89944867  .00000142  00000+0  33264-3 0  9999
2 49108  87.9109 130.0536 0001854  73.4655 286.6680 13.17647708151540
ONEWEB-0292             
1 49186U 21083A   24275.87922634 -.00000173  00000+0 -50967-3 0  9995
2 49186  87.8859  84.2711 0001502  90.0166 270.1135 13.13470594149109
ONEWEB-0303             
1 49187U 21083B   24276.05535746  .00000051  00000+0  97035-4 0  9992
2 49187  87.9054  99.4832 0001462  84.0076 276.1222 13.18684572149132
ONEWEB-0306             
1 49188U 21083C   24275.89412792 -.00000017  00000+0 -75102-4 0  9994
2 49188  87.9050  99.5018 0001857  87.8222 272.3123 13.18684741147873
ONEWEB-0307             
1 49189U 21083D   24275.87366671 -.00000126  00000+0 -38112-3 0  9997
2 49189  87.8861  84.2733 0002011  87.5126 272.6233 13.13470841149103
ONEWEB-0320             
1 49190U 21083E   24275.52105693  .00000054  00000+0  10332-3 0  9998
2 49190  87.9052  99.6019 0001726  86.2145 273.9185 13.18684623147786
ONEWEB-0321             
1 49191U 21083F   24276.10132239 -.00000020  00000+0 -80162-4 0  9994
2 49191  87.9269  38.3745 0002004 102.3085 257.8273 13.20769795155860
ONEWEB-0322             
1 49192U 21083G   24275.86968899 -.00000069  00000+0 -22511-3 0  9992
2 49192  87.8861  84.2632 0002101  95.6389 264.4980 13.13467433149095
ONEWEB-0324             
1 49193U 21083H   24275.88623057 -.00000104  00000+0 -29628-3 0  9995
2 49193  87.9050  99.5097 0001725  78.5324 281.6002 13.18685058147859
ONEWEB-0325             
1 49194U 21083J   24275.89096066 -.00000071  00000+0 -21374-3 0  9994
2 49194  87.9051  99.5241 0001707  89.0858 271.0469 13.18684051147864
ONEWEB-0326             
1 49195U 21083K   24276.05695680  .00000100  00000+0  21963-3 0  9996
2 49195  87.9051  99.4874 0001252  74.4336 285.6934 13.18685802149157
ONEWEB-0327             
1 49196U 21083L   24276.05616310  .00005239  00000+0  13255-1 0  9991
2 49196  87.9050  99.5125 0001297  86.1859 273.9422 13.18655908149174
